NORAD_CAT_ID,OBJECT_NAME,OBJECT_TYPE,EPOCH,MEAN_MOTION,ECCENTRICITY,INCLINATION,RA_OF_ASC_NODE,ARG_OF_PERICENTER,MEAN_ANOMALY,BSTAR,MEAN_MOTION_DOT,MEAN_MOTION_DDOT,TLE_LINE0,TLE_LINE1,TLE_LINE2,SEMIMAJOR_AXIS,PERIOD,APOGEE,PERIGEE,DECAYED
52575.0,STARLINK-3920,PAYLOAD,2022-05-27 13:37:06,15.73264926,0.000176,53.2185,225.553,55.9789,304.1398,0.00077414,0.00109762,0.0,0 STARLINK-3920,1 52575U 22051AR  22147.56743134  .00109762  00000-0  77414-3 0  9994,2 52575  53.2185 225.5530 0001760  55.9789 304.1398 15.73264926  2622,6727.71,91.529,350.759,348.391,0.0
52575.0,STARLINK-3920,PAYLOAD,2022-05-27 22:00:01,15.73239118,0.0002244,53.2186,223.8255,23.2429,156.0328,-0.00048483,-0.00068237,0.0,0 STARLINK-3920,1 52575U 22051AR  22147.91668981 -.00068237  00000-0 -48483-3 0  9996,2 52575  53.2186 223.8255 0002244  23.2429 156.0328 15.73239118  1301,6727.784000000002,91.531,351.158,348.139,0.0
52575.0,STARLINK-3920,PAYLOAD,2022-05-28 06:00:02,15.73210486,0.0002077,53.2188,222.1757,18.3878,249.8014,0.00010205,0.00013731,0.0,0 STARLINK-3920,1 52575U 22051AR  22148.25002315  .00013731  00000-0  10205-3 0  9995,2 52575  53.2188 222.1757 0002077  18.3878 249.8014 15.73210486  2793,6727.865,91.533,351.12800000000016,348.333,0.0
52575.0,STARLINK-3920,PAYLOAD,2022-05-28 12:29:18,15.7325916,0.0002177,53.2183,220.8379,12.3362,347.7711,0.00079998,0.00113473,0.0,0 STARLINK-3920,1 52575U 22051AR  22148.52035184  .00113473  00000-0  79998-3 0  9993,2 52575  53.2183 220.8379 0002177  12.3362 347.7711 15.73259160  2778,6727.727,91.53,351.056,348.12699999999984,0.0
52575.0,STARLINK-3920,PAYLOAD,2022-05-28 14:00:01,15.73171234,0.0002335,53.2184,220.5284,13.9337,343.1263,0.00023674,0.00032695,0.0,0 STARLINK-3920,1 52575U 22051AR  22148.58334491  .00032695  00000-0  23674-3 0  9998,2 52575  53.2184 220.5284 0002335  13.9337 343.1263 15.73171234  2852,6727.977,91.535,351.413,348.271,0.0
52575.0,STARLINK-3920,PAYLOAD,2022-05-28 22:00:00,15.73234385,0.0002218,53.2179,218.8775,13.4011,72.5798,-3.3022e-05,-5.261e-05,0.0,0 STARLINK-3920,1 52575U 22051AR  22148.91667824 -.00005261  00000-0 -33022-4 0  9994,2 52575  53.2179 218.8775 0002218  13.4011  72.5798 15.73234385  2904,6727.797,91.531,351.154,348.17,0.0
52575.0,STARLINK-3920,PAYLOAD,2022-05-29 14:00:01,15.73201068,0.000251,53.2181,215.5806,19.9788,243.8683,-0.00044316,-0.0006237,0.0,0 STARLINK-3920,1 52575U 22051AR  22149.58334491 -.00062370  00000-0 -44316-3 0  9990,2 52575  53.2181 215.5806 0002510  19.9788 243.8683 15.73201068  3003,6727.892,91.533,351.446,348.0680000000001,0.0
52575.0,STARLINK-3920,PAYLOAD,2022-05-29 22:00:00,15.73145958,0.0002367,53.2182,213.9294,20.1681,332.6071,0.00013816,0.00018769,0.0,0 STARLINK-3920,1 52575U 22051AR  22149.91667824  .00018769  00000-0  13816-3 0  9998,2 52575  53.2182 213.9294 0002367  20.1681 332.6071 15.73145958  1307,6728.049,91.536,351.50699999999995,348.32199999999995,0.0
52575.0,STARLINK-3920,PAYLOAD,2022-05-30 06:00:00,15.73180409,0.0002405,53.2182,212.28,21.8416,59.7909,0.0002678,0.00037101,0.0,0 STARLINK-3920,1 52575U 22051AR  22150.25001157  .00037101  00000-0  26780-3 0  9993,2 52575  53.2182 212.2800 0002405  21.8416  59.7909 15.73180409  3117,6727.951,91.534,351.434,348.1980000000001,0.0
52575.0,STARLINK-3920,PAYLOAD,2022-05-30 12:00:00,15.73173936,0.0002637,53.2179,211.0447,20.9117,37.3903,0.00030333,0.0004212,0.0,0 STARLINK-3920,1 52575U 22051AR  22150.50001157  .00042120  00000-0  30333-3 0  9997,2 52575  53.2179 211.0447 0002637  20.9117  37.3903 15.73173936  3159,6727.969,91.535,351.6090000000001,348.06,0.0
52575.0,STARLINK-3920,PAYLOAD,2022-05-30 13:16:42,15.73182743,0.0002247,53.2175,210.7791,18.8923,341.2181,0.0003153,0.00043831,0.0,0 STARLINK-3920,1 52575U 22051AR  22150.55327107  .00043831  00000-0  31530-3 0  9998,2 52575  53.2175 210.7791 0002247  18.8923 341.2181 15.73182743  3095,6727.944,91.534,351.321,348.298,0.0
52575.0,STARLINK-3920,PAYLOAD,2022-05-30 20:54:06,15.73208056,0.000248,53.2172,209.2075,17.137,342.9734,0.00027411,0.0003804,0.0,0 STARLINK-3920,1 52575U 22051AR  22150.87091229  .00038040  00000-0  27411-3 0  9995,2 52575  53.2172 209.2075 0002480  17.1370 342.9734 15.73208056  3141,6727.871999999999,91.533,351.406,348.069,0.0
52575.0,STARLINK-3920,PAYLOAD,2022-05-31 06:00:02,15.73196137,0.0002372,53.2175,207.332,17.9274,330.5434,0.00011184,0.00015101,0.0,0 STARLINK-3920,1 52575U 22051AR  22151.25002315  .00015101  00000-0  11184-3 0  9999,2 52575  53.2175 207.3320 0002372  17.9274 330.5434 15.73196137  1309,6727.906,91.533,351.367,348.175,0.0
52575.0,STARLINK-3920,PAYLOAD,2022-05-31 13:40:23,15.73219295,0.0002487,53.2174,205.7499,19.1148,340.9965,0.00012764,0.00017345,0.0,0 STARLINK-3920,1 52575U 22051AR  22151.56971813  .00017345  00000-0  12764-3 0  9998,2 52575  53.2174 205.7499 0002487  19.1148 340.9965 15.73219295  3327,6727.84,91.532,351.37800000000016,348.032,0.0
52575.0,STARLINK-3920,PAYLOAD,2022-05-31 22:00:00,15.7321158,0.0002581,53.2176,204.033,19.9468,146.3494,-2.0226e-05,-3.462e-05,0.0,0 STARLINK-3920,1 52575U 22051AR  22151.91667824 -.00003462  00000-0 -20226-4 0  9991,2 52575  53.2176 204.0330 0002581  19.9468 146.3494 15.73211580  1303,6727.861999999999,91.533,351.464,347.991,0.0
52575.0,STARLINK-3920,PAYLOAD,2022-06-01 06:00:00,15.73226545,0.0002631,53.2177,202.3838,23.8466,231.3715,6.489899999999999e-05,8.507e-05,0.0,0 STARLINK-3920,1 52575U 22051AR  22152.25001157  .00008507  00000-0  64899-4 0  9997,2 52575  53.2177 202.3838 0002631  23.8466 231.3715 15.73226545  3429,6727.819,91.532,351.455,347.914,0.0
52575.0,STARLINK-3920,PAYLOAD,2022-06-01 20:00:01,15.73200836,0.000266,53.2169,199.4973,20.274,300.6151,7.8038e-05,0.00010345,0.0,0 STARLINK-3920,1 52575U 22051AR  22152.83334491  .00010345  00000-0  78038-4 0  9994,2 52575  53.2169 199.4973 0002660  20.2740 300.6151 15.73200836  3513,6727.893,91.533,351.547,347.968,0.0
52575.0,STARLINK-3920,PAYLOAD,2022-06-03 02:39:35,15.73221823,0.0002872,53.2173,193.1754,37.7783,322.3438,0.00018965,0.00026106,0.0,0 STARLINK-3920,1 52575U 22051AR  22154.11082852  .00026106  00000-0  18965-3 0  9992,2 52575  53.2173 193.1754 0002872  37.7783 322.3438 15.73221823  3722,6727.833000000001,91.532,351.63,347.766,0.0
52575.0,STARLINK-3920,PAYLOAD,2022-06-03 11:48:28,15.7323762,0.0002865,53.2161,191.2885,29.6196,330.4986,0.00021545,0.00029775,0.0,0 STARLINK-3920,1 52575U 22051AR  22154.49199146  .00029775  00000-0  21545-3 0  9991,2 52575  53.2161 191.2885 0002865  29.6196 330.4986 15.73237620  3712,6727.788000000001,91.531,351.58,347.725,0.0
52575.0,STARLINK-3920,PAYLOAD,2022-06-04 12:12:07,15.73215302,0.0003117,53.2177,186.2602,28.5548,331.5643,8.2349e-05,0.00010959,0.0,0 STARLINK-3920,1 52575U 22051AR  22155.50842393  .00010959  00000-0  82349-4 0  9997,2 52575  53.2177 186.2602 0003117  28.5548 331.5643 15.73215302  3940,6727.852,91.532,351.814,347.619,0.0
52575.0,STARLINK-3920,PAYLOAD,2022-06-05 22:00:00,15.73161914,0.0002642,53.2179,179.2907,15.8704,44.5561,0.00017158,0.0002349,0.0,0 STARLINK-3920,1 52575U 22051AR  22156.91667824  .00023490  00000-0  17158-3 0  9996,2 52575  53.2179 179.2907 0002642  15.8704  44.5561 15.73161914  4161,6728.004,91.535,351.646,348.091,0.0
52575.0,STARLINK-3920,PAYLOAD,2022-06-06 14:00:01,15.73200728,0.0002903,53.2165,175.9941,14.6461,223.5931,0.00030221,0.00042012,0.0,0 STARLINK-3920,1 52575U 22051AR  22157.58334491  .00042012  00000-0  30221-3 0  9998,2 52575  53.2165 175.9941 0002903  14.6461 223.5931 15.73200728  1304,6727.893,91.533,351.711,347.805,0.0
52575.0,STARLINK-3920,PAYLOAD,2022-06-06 22:00:00,15.73226477,0.0002668,53.2164,174.3425,15.1222,312.0669,-9.368e-05,-0.00013766,0.0,0 STARLINK-3920,1 52575U 22051AR  22157.91667824 -.00013766  00000-0 -93680-4 0  9999,2 52575  53.2164 174.3425 0002668  15.1222 312.0669 15.73226477  1303,6727.82,91.532,351.48,347.89,0.0
52575.0,STARLINK-3920,PAYLOAD,2022-06-07 06:00:00,15.73216078,0.000282,53.2167,172.6945,14.2703,41.8899,5.7509e-05,7.462e-05,0.0,0 STARLINK-3920,1 52575U 22051AR  22158.25001157  .00007462  00000-0  57509-4 0  9992,2 52575  53.2167 172.6945 0002820  14.2703  41.8899 15.73216078  4376,6727.849,91.532,351.612,347.81699999999995,0.0
52575.0,STARLINK-3920,PAYLOAD,2022-06-07 14:00:01,15.73253898,0.0002934,53.2162,171.0455,11.7287,133.3674,-0.00048448,-0.00068241,0.0,0 STARLINK-3920,1 52575U 22051AR  22158.58334491 -.00068241  00000-0 -48448-3 0  9993,2 52575  53.2162 171.0455 0002934  11.7287 133.3674 15.73253898  1304,6727.7419999999975,91.53,351.58,347.6330000000001,0.0
52575.0,STARLINK-3920,PAYLOAD,2022-06-07 22:00:00,15.7317414,0.0002641,53.2162,169.394,11.3637,222.7101,0.00053504,0.00075067,0.0,0 STARLINK-3920,1 52575U 22051AR  22158.91667824  .00075067  00000-0  53504-3 0  9990,2 52575  53.2162 169.3940 0002641  11.3637 222.7101 15.73174140  1303,6727.969,91.535,351.611,348.057,0.0
52575.0,STARLINK-3920,PAYLOAD,2022-06-08 06:00:02,15.73231126,0.0002841,53.2163,167.7462,14.8512,308.2272,-0.00046108,-0.00064936,0.0,0 STARLINK-3920,1 52575U 22051AR  22159.25002315 -.00064936  00000-0 -46108-3 0  9993,2 52575  53.2163 167.7462 0002841  14.8512 308.2272 15.73231126  4521,6727.806,91.531,351.583,347.76,0.0
52575.0,STARLINK-3920,PAYLOAD,2022-06-08 14:00:01,15.73223863,0.0002955,53.216,166.0971,13.6319,38.3034,-0.00044796,-0.00063101,0.0,0 STARLINK-3920,1 52575U 22051AR  22159.58334491 -.00063101  00000-0 -44796-3 0  9996,2 52575  53.2160 166.0971 0002955  13.6319  38.3034 15.73223863  1302,6727.8269999999975,91.532,351.68,347.704,0.0
52575.0,STARLINK-3920,PAYLOAD,2022-06-08 22:00:01,15.73133292,0.0002682,53.2164,164.4456,13.8318,127.1019,0.00055944,0.00078413,0.0,0 STARLINK-3920,1 52575U 22051AR  22159.91668981  .00078413  00000-0  55944-3 0  9994,2 52575  53.2164 164.4456 0002682  13.8318 127.1019 15.73133292  4639,6728.085,91.537,351.755,348.146,0.0
